STARLINK-32108          
1 59682U 24086A   26068.05937325  .00000536  00000+0  29013-4 0  9998
2 59682  43.0039  67.0607 0001057 271.5921  88.4809 15.27573212103968
FLOCK 4G-18             
1 62680U 25009BZ  26068.19114186  .00011766  00000+0  44319-3 0  9995
2 62680  97.4054 150.5008 0004100 335.7331  24.3715 15.27241676121267
